[{"OBJECT_NAME":"STARLINK-35274","OBJECT_ID":"2025-235R","EPOCH":"2026-03-09T17:36:10.368576","MEAN_MOTION":15.30212157,"ECCENTRICITY":0.00011389,"INCLINATION":53.1599,"RA_OF_ASC_NODE":245.3852,"ARG_OF_PERICENTER":125.2737,"MEAN_ANOMALY":234.8371,"EPHEMERIS_TYPE":0,"CLASSIFICATION_TYPE":"U","NORAD_CAT_ID":66073,"ELEMENT_SET_NO":999,"REV_AT_EPOCH":2292,"BSTAR":0.00085005779,"MEAN_MOTION_DOT":0.00024911,"MEAN_MOTION_DDOT":0},{"OBJECT_NAME":"D-SAT","OBJECT_ID":"2017-036AF","EPOCH":"2026-03-09T22:00:14.910336","MEAN_MOTION":15.15529522,"ECCENTRICITY":0.00852401,"INCLINATION":97.5487,"RA_OF_ASC_NODE":48.252,"ARG_OF_PERICENTER":144.4633,"MEAN_ANOMALY":216.2319,"EPHEMERIS_TYPE":0,"CLASSIFICATION_TYPE":"U","NORAD_CAT_ID":42794,"ELEMENT_SET_NO":999,"REV_AT_EPOCH":47581,"BSTAR":0.00038655305,"MEAN_MOTION_DOT":7.964e-5,"MEAN_MOTION_DDOT":0}]
